start=new Date('2022-12-18T00:00:00.000Z').valueOf();
sats=[{"COUNTRY_CODE":"US","GP_ID":"220755815","ELEMENT_SET_NO":"999","MEAN_ANOMALY":"302.1903","ARG_OF_PERICENTER":"57.9275","MEAN_MOTION":"15.06394688","TLE_LINE2":"2 47808  53.0552 134.4738 0001948  57.9275 302.1903 15.06394688 99181","TIME_SYSTEM":"UTC","PERIAPSIS":"545.881","RA_OF_ASC_NODE":"134.4738","ECCENTRICITY":"0.00019480","DECAY_DATE":null,"REV_AT_EPOCH":"9918","CLASSIFICATION_TYPE":"U","CENTER_NAME":"EARTH","SITE":"AFETR","OBJECT_ID":"2021-018X","INCLINATION":"53.0552","EPOCH":"2022-12-17T18:43:22.030176","OBJECT_TYPE":"PAYLOAD","REF_FRAME":"TEME","PERIOD":"95.592","NORAD_CAT_ID":"47808","MEAN_MOTION_DDOT":"0.0000000000000","MEAN_ELEMENT_THEORY":"SGP4","BSTAR":"0.00003119000000","LAUNCH_DATE":"2021-03-11","SEMIMAJOR_AXIS":"6925.365","APOAPSIS":"548.579","FILE":"3707070","EPHEMERIS_TYPE":"0","OBJECT_NAME":"STARLINK-2389","RCS_SIZE":"LARGE","MEAN_MOTION_DOT":"0.00000183","TLE_LINE1":"1 47808U 21018X   22351.78011609  .00000183  00000-0  31190-4 0  9994"},{"ECCENTRICITY":"0.00018790","RA_OF_ASC_NODE":"139.1428","PERIAPSIS":"545.948","TIME_SYSTEM":"UTC","ARG_OF_PERICENTER":"52.1848","MEAN_MOTION":"15.06388439","TLE_LINE2":"2 47809  53.0545 139.1428 0001879  52.1848 307.9310 15.06388439 99124","MEAN_ANOMALY":"307.9310","ELEMENT_SET_NO":"999","GP_ID":"220756067","COUNTRY_CODE":"US","RCS_SIZE":"LARGE","MEAN_MOTION_DOT":"-0.00002130","TLE_LINE1":"1 47809U 21018Y   22351.85059361 -.00002130  00000-0 -12414-3 0  9993","OBJECT_NAME":"STARLINK-2390","FILE":"3707070","EPHEMERIS_TYPE":"0","APOAPSIS":"548.550","BSTAR":"-0.00012414000000","LAUNCH_DATE":"2021-03-11","SEMIMAJOR_AXIS":"6925.384","MEAN_ELEMENT_THEORY":"SGP4","NORAD_CAT_ID":"47809","MEAN_MOTION_DDOT":"0.0000000000000","OBJECT_TYPE":"PAYLOAD","REF_FRAME":"TEME","PERIOD":"95.593","EPOCH":"2022-12-17T20:24:51.287904","INCLINATION":"53.0545","OBJECT_ID":"2021-018Y","SITE":"AFETR","DECAY_DATE":null,"CLASSIFICATION_TYPE":"U","REV_AT_EPOCH":"9912","CENTER_NAME":"EARTH"},{"EPOCH":"2022-12-17T17:50:58.493184","PERIOD":"95.592","OBJECT_TYPE":"PAYLOAD","REF_FRAME":"TEME","REV_AT_EPOCH":"9896","DECAY_DATE":null,"CLASSIFICATION_TYPE":"U","CENTER_NAME":"EARTH","SITE":"AFETR","OBJECT_ID":"2021-018Z","INCLINATION":"53.0541","EPHEMERIS_TYPE":"0","FILE":"3707070","OBJECT_NAME":"STARLINK-2391","TLE_LINE1":"1 47810U 21018Z   22351.74373256 -.00002060  00000-0 -11939-3 0  9998","MEAN_MOTION_DOT":"-0.00002060","RCS_SIZE":"LARGE","MEAN_MOTION_DDOT":"0.0000000000000","NORAD_CAT_ID":"47810","MEAN_ELEMENT_THEORY":"SGP4","SEMIMAJOR_AXIS":"6925.333","LAUNCH_DATE":"2021-03-11","BSTAR":"-0.00011939000000","APOAPSIS":"548.439","MEAN_ANOMALY":"299.1728","TLE_LINE2":"2 47810  53.0541 149.6256 0001792  60.9441 299.1728 15.06405200 98969","MEAN_MOTION":"15.06405200","ARG_OF_PERICENTER":"60.9441","COUNTRY_CODE":"US","GP_ID":"220756318","ELEMENT_SET_NO":"999","ECCENTRICITY":"0.00017920","TIME_SYSTEM":"UTC","PERIAPSIS":"545.957","RA_OF_ASC_NODE":"149.6256"},{"EPOCH":"2022-12-17T18:48:00.223488","PERIOD":"95.593","REF_FRAME":"TEME","OBJECT_TYPE":"PAYLOAD","OBJECT_ID":"2021-018AA","INCLINATION":"53.0552","CLASSIFICATION_TYPE":"U","DECAY_DATE":null,"REV_AT_EPOCH":"9939","CENTER_NAME":"EARTH","SITE":"AFETR","OBJECT_NAME":"STARLINK-2392","MEAN_MOTION_DOT":"-0.00000807","TLE_LINE1":"1 47811U 21018AA  22351.78333592 -.00000807  00000-0 -35274-4 0  9998","RCS_SIZE":"LARGE","EPHEMERIS_TYPE":"0","FILE":"3707070","SEMIMAJOR_AXIS":"6925.391","LAUNCH_DATE":"2021-03-11","BSTAR":"-0.00003527400000","APOAPSIS":"548.115","MEAN_MOTION_DDOT":"0.0000000000000","NORAD_CAT_ID":"47811","MEAN_ELEMENT_THEORY":"SGP4","TLE_LINE2":"2 47811  53.0552 119.4587 0001240  83.2101 276.9029 15.06386154 99394","MEAN_MOTION":"15.06386154","ARG_OF_PERICENTER":"83.2101","MEAN_ANOMALY":"276.9029","ELEMENT_SET_NO":"999","COUNTRY_CODE":"US","GP_ID":"220755066","ECCENTRICITY":"0.00012400","PERIAPSIS":"546.397","RA_OF_ASC_NODE":"119.4587","TIME_SYSTEM":"UTC"},{"ECCENTRICITY":"0.00018770","RA_OF_ASC_NODE":"149.2701","PERIAPSIS":"545.905","TIME_SYSTEM":"UTC","MEAN_MOTION":"15.06402948","TLE_LINE2":"2 47812  53.0536 149.2701 0001877  63.9499 296.1683 15.06402948 98914","ARG_OF_PERICENTER":"63.9499","MEAN_ANOMALY":"296.1683","ELEMENT_SET_NO":"999","GP_ID":"220755316","COUNTRY_CODE":"US","TLE_LINE1":"1 47812U 21018AB  22351.82111786  .00000509  00000-0  53102-4 0  9990","MEAN_MOTION_DOT":"0.00000509","RCS_SIZE":"LARGE","OBJECT_NAME":"STARLINK-2393","EPHEMERIS_TYPE":"0","FILE":"3707070","APOAPSIS":"548.504","SEMIMAJOR_AXIS":"6925.340","LAUNCH_DATE":"2021-03-11","BSTAR":"0.00005310200000","MEAN_ELEMENT_THEORY":"SGP4","MEAN_MOTION_DDOT":"0.0000000000000","NORAD_CAT_ID":"47812","PERIOD":"95.592","OBJECT_TYPE":"PAYLOAD","REF_FRAME":"TEME","EPOCH":"2022-12-17T19:42:24.583104","INCLINATION":"53.0536","OBJECT_ID":"2021-018AB","SITE":"AFETR","DECAY_DATE":null,"REV_AT_EPOCH":"9891","CENTER_NAME":"EARTH","CLASSIFICATION_TYPE":"U"},{"SITE":"AFETR","DECAY_DATE":null,"REV_AT_EPOCH":"9938","CLASSIFICATION_TYPE":"U","CENTER_NAME":"EARTH","INCLINATION":"53.0534","OBJECT_ID":"2021-018AC","OBJECT_TYPE":"PAYLOAD","REF_FRAME":"TEME","PERIOD":"95.592","EPOCH":"2022-12-17T17:44:18.593376","MEAN_ELEMENT_THEORY":"SGP4","NORAD_CAT_ID":"47813","MEAN_MOTION_DDOT":"0.0000000000000","APOAPSIS":"548.346","LAUNCH_DATE":"2021-03-11","BSTAR":"0.00006777200000","SEMIMAJOR_AXIS":"6925.355","FILE":"3707070","EPHEMERIS_TYPE":"0","RCS_SIZE":"LARGE","TLE_LINE1":"1 47813U 21018AC  22351.73910409  .00000728  00000-0  67772-4 0  9991","MEAN_MOTION_DOT":"0.00000728","OBJECT_NAME":"STARLINK-2394","GP_ID":"220756567","COUNTRY_CODE":"US","ELEMENT_SET_NO":"999","MEAN_ANOMALY":"288.1023","ARG_OF_PERICENTER":"72.0143","MEAN_MOTION":"15.06397776","TLE_LINE2":"2 47813  53.0534 119.6573 0001625  72.0143 288.1023 15.06397776 99382","TIME_SYSTEM":"UTC","RA_OF_ASC_NODE":"119.6573","PERIAPSIS":"546.095","ECCENTRICITY":"0.00016250"},{"ECCENTRICITY":"0.00018950","RA_OF_ASC_NODE":"139.2404","PERIAPSIS":"545.896","TIME_SYSTEM":"UTC","ARG_OF_PERICENTER":"62.1598","MEAN_MOTION":"15.06401633","TLE_LINE2":"2 47814  53.0549 139.2404 0001895  62.1598 297.9582 15.06401633 99121","MEAN_ANOMALY":"297.9582","ELEMENT_SET_NO":"999","GP_ID":"220756818","COUNTRY_CODE":"US","RCS_SIZE":"LARGE","TLE_LINE1":"1 47814U 21018AD  22351.82939969  .00000067  00000-0  23380-4 0  9997","MEAN_MOTION_DOT":"0.00000067","OBJECT_NAME":"STARLINK-2395","FILE":"3707070","EPHEMERIS_TYPE":"0","APOAPSIS":"548.521","LAUNCH_DATE":"2021-03-11","BSTAR":"0.00002338000000","SEMIMAJOR_AXIS":"6925.344","MEAN_ELEMENT_THEORY":"SGP4","NORAD_CAT_ID":"47814","MEAN_MOTION_DDOT":"0.0000000000000","OBJECT_TYPE":"PAYLOAD","REF_FRAME":"TEME","PERIOD":"95.592","EPOCH":"2022-12-17T19:54:20.133216","INCLINATION":"53.0549","OBJECT_ID":"2021-018AD","SITE":"AFETR","REV_AT_EPOCH":"9912","DECAY_DATE":null,"CENTER_NAME":"EARTH","CLASSIFICATION_TYPE":"U"},{"ECCENTRICITY":"0.00022360","RA_OF_ASC_NODE":"134.4061","PERIAPSIS":"545.647","TIME_SYSTEM":"UTC","ARG_OF_PERICENTER":"56.3155","MEAN_MOTION":"15.06405814","TLE_LINE2":"2 47815  53.0540 134.4061 0002236  56.3155 303.8047 15.06405814 99121","MEAN_ANOMALY":"303.8047","ELEMENT_SET_NO":"999","GP_ID":"220755566","COUNTRY_CODE":"US","RCS_SIZE":"LARGE","MEAN_MOTION_DOT":"0.00003600","TLE_LINE1":"1 47815U 21018AE  22351.79486082  .00003600  00000-0  26045-3 0  9993","OBJECT_NAME":"STARLINK-2396","FILE":"3707070","EPHEMERIS_TYPE":"0","APOAPSIS":"548.744","BSTAR":"0.00026045000000","LAUNCH_DATE":"2021-03-11","SEMIMAJOR_AXIS":"6925.331","MEAN_ELEMENT_THEORY":"SGP4","NORAD_CAT_ID":"47815","MEAN_MOTION_DDOT":"0.0000000000000","REF_FRAME":"TEME","OBJECT_TYPE":"PAYLOAD","PERIOD":"95.592","EPOCH":"2022-12-17T19:04:35.974848","INCLINATION":"53.0540","OBJECT_ID":"2021-018AE","SITE":"AFETR","CENTER_NAME":"EARTH","DECAY_DATE":null,"REV_AT_EPOCH":"9912","CLASSIFICATION_TYPE":"U"},{"EPOCH":"2022-12-17T17:41:39.932736","OBJECT_TYPE":"PAYLOAD","REF_FRAME":"TEME","PERIOD":"95.592","DECAY_DATE":null,"CENTER_NAME":"EARTH","REV_AT_EPOCH":"9904","CLASSIFICATION_TYPE":"U","SITE":"AFETR","OBJECT_ID":"2021-018AF","INCLINATION":"53.0555","FILE":"3707070","EPHEMERIS_TYPE":"0","OBJECT_NAME":"STARLINK-2399","RCS_SIZE":"LARGE","MEAN_MOTION_DOT":"0.00001040","TLE_LINE1":"1 47816U 21018AF  22351.73726774  .00001040  00000-0  88697-4 0  9991","NORAD_CAT_ID":"47816","MEAN_MOTION_DDOT":"0.0000000000000","MEAN_ELEMENT_THEORY":"SGP4","BSTAR":"0.00008869700000","LAUNCH_DATE":"2021-03-11","SEMIMAJOR_AXIS":"6925.364","APOAPSIS":"548.238","MEAN_ANOMALY":"300.7459","ARG_OF_PERICENTER":"59.3674","TLE_LINE2":"2 47816  53.0555 139.6559 0001456  59.3674 300.7459 15.06394805 99040","MEAN_MOTION":"15.06394805","COUNTRY_CODE":"US","GP_ID":"220755816","ELEMENT_SET_NO":"999","ECCENTRICITY":"0.00014560","TIME_SYSTEM":"UTC","PERIAPSIS":"546.221","RA_OF_ASC_NODE":"139.6559"},{"ARG_OF_PERICENTER":"64.6205","TLE_LINE2":"2 47817  53.0546 139.2782 0001844  64.6205 295.4975 15.06411164 99057","MEAN_MOTION":"15.06411164","MEAN_ANOMALY":"295.4975","ELEMENT_SET_NO":"999","GP_ID":"220756068","COUNTRY_CODE":"US","ECCENTRICITY":"0.00018440","RA_OF_ASC_NODE":"139.2782","PERIAPSIS":"545.902","TIME_SYSTEM":"UTC","OBJECT_TYPE":"PAYLOAD","REF_FRAME":"TEME","PERIOD":"95.591","EPOCH":"2022-12-17T19:43:43.779072","INCLINATION":"53.0546","OBJECT_ID":"2021-018AG","SITE":"AFETR","DECAY_DATE":null,"CENTER_NAME":"EARTH","REV_AT_EPOCH":"9905","CLASSIFICATION_TYPE":"U","RCS_SIZE":"LARGE","TLE_LINE1":"1 47817U 21018AG  22351.82203448  .00001025  00000-0  87671-4 0  9994","MEAN_MOTION_DOT":"0.00001025","OBJECT_NAME":"STARLINK-2400","FILE":"3707070","EPHEMERIS_TYPE":"0","APOAPSIS":"548.456","LAUNCH_DATE":"2021-03-11","BSTAR":"0.00008767100000","SEMIMAJOR_AXIS":"6925.314","MEAN_ELEMENT_THEORY":"SGP4","NORAD_CAT_ID":"47817","MEAN_MOTION_DDOT":"0.0000000000000"}];
